start=new Date('2022-09-18T00:00:00.000Z').valueOf();
sats=[{"MEAN_MOTION_DOT":"-0.00002395","ARG_OF_PERICENTER":"65.0055","OBJECT_NAME":"STARLINK-1715","OBJECT_ID":"2020-073B","TLE_LINE1":"1 46671U 20073B   22260.19193806 -.00002395  00000-0 -14200-3 0  9996","REF_FRAME":"TEME","ECCENTRICITY":"0.00016880","EPHEMERIS_TYPE":"0","PERIOD":"95.593","FILE":"3576375","MEAN_ELEMENT_THEORY":"SGP4","TIME_SYSTEM":"UTC","ELEMENT_SET_NO":"999","BSTAR":"-0.00014200000000","OBJECT_TYPE":"PAYLOAD","CENTER_NAME":"EARTH","NORAD_CAT_ID":"46671","RA_OF_ASC_NODE":"185.8655","MEAN_MOTION":"15.06381090","GP_ID":"212810340","MEAN_MOTION_DDOT":"0.0000000000000","LAUNCH_DATE":"2020-10-18","REV_AT_EPOCH":"10571","SEMIMAJOR_AXIS":"6925.407","CLASSIFICATION_TYPE":"U","APOAPSIS":"548.441","INCLINATION":"53.0556","MEAN_ANOMALY":"295.1109","EPOCH":"2022-09-17T04:36:23.448384","RCS_SIZE":"LARGE","DECAY_DATE":null,"SITE":"AFETR","PERIAPSIS":"546.103","COUNTRY_CODE":"US","TLE_LINE2":"2 46671  53.0556 185.8655 0001688  65.0055 295.1109 15.06381090105716"},{"APOAPSIS":"548.163","CLASSIFICATION_TYPE":"U","SEMIMAJOR_AXIS":"6925.358","REV_AT_EPOCH":"10590","LAUNCH_DATE":"2020-10-18","MEAN_MOTION_DDOT":"0.0000000000000","MEAN_MOTION":"15.06396972","GP_ID":"212867560","TLE_LINE2":"2 46672  53.0556 177.2762 0001358  69.3896 290.7239 15.06396972105906","PERIAPSIS":"546.282","SITE":"AFETR","DECAY_DATE":null,"COUNTRY_CODE":"US","RCS_SIZE":"LARGE","INCLINATION":"53.0556","MEAN_ANOMALY":"290.7239","EPOCH":"2022-09-17T22:31:48.200448","ECCENTRICITY":"0.00013580","OBJECT_ID":"2020-073C","REF_FRAME":"TEME","TLE_LINE1":"1 46672U 20073C   22260.93875232  .00000308  00000-0  39574-4 0  9991","MEAN_MOTION_DOT":"0.00000308","ARG_OF_PERICENTER":"69.3896","OBJECT_NAME":"STARLINK-1716","NORAD_CAT_ID":"46672","CENTER_NAME":"EARTH","RA_OF_ASC_NODE":"177.2762","ELEMENT_SET_NO":"999","BSTAR":"0.00003957400000","OBJECT_TYPE":"PAYLOAD","TIME_SYSTEM":"UTC","FILE":"3576621","MEAN_ELEMENT_THEORY":"SGP4","EPHEMERIS_TYPE":"0","PERIOD":"95.592"},{"BSTAR":"-0.00009520900000","ELEMENT_SET_NO":"999","OBJECT_TYPE":"PAYLOAD","NORAD_CAT_ID":"46673","CENTER_NAME":"EARTH","RA_OF_ASC_NODE":"194.2487","EPHEMERIS_TYPE":"0","PERIOD":"95.593","TIME_SYSTEM":"UTC","FILE":"3576375","MEAN_ELEMENT_THEORY":"SGP4","OBJECT_ID":"2020-073D","REF_FRAME":"TEME","TLE_LINE1":"1 46673U 20073D   22260.52273726 -.00001699  00000-0 -95209-4 0  9990","ECCENTRICITY":"0.00015160","MEAN_MOTION_DOT":"-0.00001699","ARG_OF_PERICENTER":"75.9555","OBJECT_NAME":"STARLINK-1717","PERIAPSIS":"546.207","SITE":"AFETR","DECAY_DATE":null,"COUNTRY_CODE":"US","TLE_LINE2":"2 46673  53.0538 194.2487 0001516  75.9555 284.1603 15.06385959105625","MEAN_ANOMALY":"284.1603","INCLINATION":"53.0538","EPOCH":"2022-09-17T12:32:44.499264","RCS_SIZE":"LARGE","CLASSIFICATION_TYPE":"U","SEMIMAJOR_AXIS":"6925.392","APOAPSIS":"548.306","MEAN_MOTION":"15.06385959","GP_ID":"212811328","LAUNCH_DATE":"2020-10-18","REV_AT_EPOCH":"10562","MEAN_MOTION_DDOT":"0.0000000000000"},{"GP_ID":"212809589","MEAN_MOTION":"15.06394958","REV_AT_EPOCH":"10578","LAUNCH_DATE":"2020-10-18","MEAN_MOTION_DDOT":"0.0000000000000","SEMIMAJOR_AXIS":"6925.364","CLASSIFICATION_TYPE":"U","APOAPSIS":"548.195","EPOCH":"2022-09-17T04:02:29.563008","MEAN_ANOMALY":"287.3300","INCLINATION":"53.0530","RCS_SIZE":"LARGE","COUNTRY_CODE":"US","DECAY_DATE":null,"SITE":"AFETR","PERIAPSIS":"546.263","TLE_LINE2":"2 46674  53.0530 180.7204 0001395  72.7841 287.3300 15.06394958105788","ARG_OF_PERICENTER":"72.7841","OBJECT_NAME":"STARLINK-1718","MEAN_MOTION_DOT":"0.00001500","TLE_LINE1":"1 46674U 20073E   22260.16839772  .00001500  00000-0  11962-3 0  9992","REF_FRAME":"TEME","OBJECT_ID":"2020-073E","ECCENTRICITY":"0.00013950","PERIOD":"95.592","EPHEMERIS_TYPE":"0","FILE":"3576375","MEAN_ELEMENT_THEORY":"SGP4","TIME_SYSTEM":"UTC","OBJECT_TYPE":"PAYLOAD","BSTAR":"0.00011962000000","ELEMENT_SET_NO":"999","RA_OF_ASC_NODE":"180.7204","CENTER_NAME":"EARTH","NORAD_CAT_ID":"46674"},{"CLASSIFICATION_TYPE":"U","SEMIMAJOR_AXIS":"6925.407","APOAPSIS":"548.252","GP_ID":"212867813","MEAN_MOTION":"15.06380833","LAUNCH_DATE":"2020-10-18","REV_AT_EPOCH":"10587","MEAN_MOTION_DDOT":"0.0000000000000","COUNTRY_CODE":"US","PERIAPSIS":"546.293","DECAY_DATE":null,"SITE":"AFETR","TLE_LINE2":"2 46675  53.0536 178.0610 0001414  70.3707 289.7435 15.06380833105875","EPOCH":"2022-09-17T18:17:03.838272","MEAN_ANOMALY":"289.7435","INCLINATION":"53.0536","RCS_SIZE":"LARGE","REF_FRAME":"TEME","TLE_LINE1":"1 46675U 20073F   22260.76184998 -.00000765  00000-0 -32461-4 0  9994","OBJECT_ID":"2020-073F","ECCENTRICITY":"0.00014140","OBJECT_NAME":"STARLINK-1720","ARG_OF_PERICENTER":"70.3707","MEAN_MOTION_DOT":"-0.00000765","OBJECT_TYPE":"PAYLOAD","ELEMENT_SET_NO":"999","BSTAR":"-0.00003246100000","RA_OF_ASC_NODE":"178.0610","NORAD_CAT_ID":"46675","CENTER_NAME":"EARTH","PERIOD":"95.593","EPHEMERIS_TYPE":"0","TIME_SYSTEM":"UTC","MEAN_ELEMENT_THEORY":"SGP4","FILE":"3576621"},{"OBJECT_ID":"2020-073H","REF_FRAME":"TEME","TLE_LINE1":"1 46677U 20073H   22260.75814837  .00000672  00000-0  63989-4 0  9991","ECCENTRICITY":"0.00012700","MEAN_MOTION_DOT":"0.00000672","ARG_OF_PERICENTER":"85.7045","OBJECT_NAME":"STARLINK-1766","ELEMENT_SET_NO":"999","BSTAR":"0.00006398900000","OBJECT_TYPE":"PAYLOAD","NORAD_CAT_ID":"46677","CENTER_NAME":"EARTH","RA_OF_ASC_NODE":"178.0741","EPHEMERIS_TYPE":"0","PERIOD":"95.593","TIME_SYSTEM":"UTC","FILE":"3576621","MEAN_ELEMENT_THEORY":"SGP4","CLASSIFICATION_TYPE":"U","SEMIMAJOR_AXIS":"6925.368","APOAPSIS":"548.112","MEAN_MOTION":"15.06393730","GP_ID":"212868060","LAUNCH_DATE":"2020-10-18","MEAN_MOTION_DDOT":"0.0000000000000","REV_AT_EPOCH":"10587","PERIAPSIS":"546.353","DECAY_DATE":null,"SITE":"AFETR","COUNTRY_CODE":"US","TLE_LINE2":"2 46677  53.0552 178.0741 0001270  85.7045 274.4089 15.06393730105871","MEAN_ANOMALY":"274.4089","INCLINATION":"53.0552","EPOCH":"2022-09-17T18:11:44.019168","RCS_SIZE":"LARGE"},{"RCS_SIZE":"LARGE","EPOCH":"2022-09-17T21:30:46.454400","INCLINATION":"53.0519","MEAN_ANOMALY":"293.5402","TLE_LINE2":"2 46679  53.0519 157.4550 0001475  66.5741 293.5402 15.06401688106179","COUNTRY_CODE":"US","PERIAPSIS":"546.187","DECAY_DATE":null,"SITE":"AFETR","REV_AT_EPOCH":"10617","LAUNCH_DATE":"2020-10-18","MEAN_MOTION_DDOT":"0.0000000000000","GP_ID":"212868283","MEAN_MOTION":"15.06401688","APOAPSIS":"548.230","CLASSIFICATION_TYPE":"U","SEMIMAJOR_AXIS":"6925.343","TIME_SYSTEM":"UTC","FILE":"3576621","MEAN_ELEMENT_THEORY":"SGP4","PERIOD":"95.592","EPHEMERIS_TYPE":"0","RA_OF_ASC_NODE":"157.4550","NORAD_CAT_ID":"46679","CENTER_NAME":"EARTH","OBJECT_TYPE":"PAYLOAD","ELEMENT_SET_NO":"999","BSTAR":"0.00049848000000","ARG_OF_PERICENTER":"66.5741","OBJECT_NAME":"STARLINK-1773","MEAN_MOTION_DOT":"0.00007151","ECCENTRICITY":"0.00014750","REF_FRAME":"TEME","TLE_LINE1":"1 46679U 20073K   22260.89637100  .00007151  00000-0  49848-3 0  9990","OBJECT_ID":"2020-073K"},{"OBJECT_TYPE":"PAYLOAD","BSTAR":"-0.00003309200000","ELEMENT_SET_NO":"999","RA_OF_ASC_NODE":"195.4304","NORAD_CAT_ID":"46680","CENTER_NAME":"EARTH","PERIOD":"95.593","EPHEMERIS_TYPE":"0","TIME_SYSTEM":"UTC","FILE":"3576375","MEAN_ELEMENT_THEORY":"SGP4","REF_FRAME":"TEME","TLE_LINE1":"1 46680U 20073L   22260.23520664 -.00000774  00000-0 -33092-4 0  9997","OBJECT_ID":"2020-073L","ECCENTRICITY":"0.00013260","ARG_OF_PERICENTER":"86.5623","OBJECT_NAME":"STARLINK-1774","MEAN_MOTION_DOT":"-0.00000774","COUNTRY_CODE":"US","PERIAPSIS":"546.335","DECAY_DATE":null,"SITE":"AFETR","TLE_LINE2":"2 46680  53.0541 195.4304 0001326  86.5623 273.5517 15.06387004105585","EPOCH":"2022-09-17T05:38:41.853696","INCLINATION":"53.0541","MEAN_ANOMALY":"273.5517","RCS_SIZE":"LARGE","CLASSIFICATION_TYPE":"U","SEMIMAJOR_AXIS":"6925.388","APOAPSIS":"548.172","GP_ID":"212810089","MEAN_MOTION":"15.06387004","REV_AT_EPOCH":"10558","LAUNCH_DATE":"2020-10-18","MEAN_MOTION_DDOT":"0.0000000000000"},{"TLE_LINE2":"2 46681  53.0540 194.0644 0001657  58.7310 301.3841 15.06341573106108","COUNTRY_CODE":"US","DECAY_DATE":null,"SITE":"AFETR","PERIAPSIS":"546.245","RCS_SIZE":"LARGE","EPOCH":"2022-09-17T12:53:58.002432","MEAN_ANOMALY":"301.3841","INCLINATION":"53.0540","APOAPSIS":"548.540","SEMIMAJOR_AXIS":"6925.528","CLASSIFICATION_TYPE":"U","REV_AT_EPOCH":"10610","LAUNCH_DATE":"2020-10-18","MEAN_MOTION_DDOT":"0.0000000000000","GP_ID":"212787849","MEAN_MOTION":"15.06341573","RA_OF_ASC_NODE":"194.0644","CENTER_NAME":"EARTH","NORAD_CAT_ID":"46681","OBJECT_TYPE":"PAYLOAD","ELEMENT_SET_NO":"999","BSTAR":"0.00079447000000","FILE":"3576264","MEAN_ELEMENT_THEORY":"SGP4","TIME_SYSTEM":"UTC","PERIOD":"95.596","EPHEMERIS_TYPE":"0","ECCENTRICITY":"0.00016570","TLE_LINE1":"1 46681U 20073M   22260.53747688  .00011553  00000-0  79447-3 0  9996","REF_FRAME":"TEME","OBJECT_ID":"2020-073M","ARG_OF_PERICENTER":"58.7310","OBJECT_NAME":"STARLINK-1775","MEAN_MOTION_DOT":"0.00011553"},{"APOAPSIS":"548.312","CLASSIFICATION_TYPE":"U","SEMIMAJOR_AXIS":"6925.331","LAUNCH_DATE":"2020-10-18","MEAN_MOTION_DDOT":"0.0000000000000","REV_AT_EPOCH":"10558","MEAN_MOTION":"15.06405816","GP_ID":"212810587","TLE_LINE2":"2 46682  53.0549 195.4502 0001612  72.6899 287.4266 15.06405816105581","PERIAPSIS":"546.079","DECAY_DATE":null,"SITE":"AFETR","COUNTRY_CODE":"US","RCS_SIZE":"LARGE","MEAN_ANOMALY":"287.4266","INCLINATION":"53.0549","EPOCH":"2022-09-17T05:33:23.559552","ECCENTRICITY":"0.00016120","OBJECT_ID":"2020-073N","REF_FRAME":"TEME","TLE_LINE1":"1 46682U 20073N   22260.23152268  .00002055  00000-0  15677-3 0  9990","MEAN_MOTION_DOT":"0.00002055","OBJECT_NAME":"STARLINK-1776","ARG_OF_PERICENTER":"72.6899","NORAD_CAT_ID":"46682","CENTER_NAME":"EARTH","RA_OF_ASC_NODE":"195.4502","BSTAR":"0.00015677000000","ELEMENT_SET_NO":"999","OBJECT_TYPE":"PAYLOAD","TIME_SYSTEM":"UTC","MEAN_ELEMENT_THEORY":"SGP4","FILE":"3576375","EPHEMERIS_TYPE":"0","PERIOD":"95.592"}];
